{
    "NOAA 15": {
        "line1": "1 25338U 98030A   22071.52846541  .00000122  00000+0  69401-4 0  9996",
        "line2": "2 25338  98.6563 102.2786 0009830 214.8703 145.1834 14.26096740239459",
        "freq": 137.62,
        "type": "APT",
        "catalog_number": "25338"
    },
    "NOAA 18": {
        "line1": "1 28654U 05018A   22071.53037626  .00000172  00000+0  11679-3 0  9999",
        "line2": "2 28654  98.9588 142.0102 0013470 242.9883 116.9914 14.12697821866298",
        "freq": 137.9125,
        "type": "APT",
        "catalog_number": "28654"
    },
    "NOAA 19": {
        "line1": "1 33591U 09005A   22071.59161376  .00000124  00000+0  92303-4 0  9992",
        "line2": "2 33591  99.1609 103.6379 0014881  99.9841 260.3010 14.12536794674515",
        "freq": 137.1,
        "type": "APT",
        "catalog_number": "33591"
    },
    "METEOR M2": {
        "line1": "1 40069U 14037A   22071.41486766 -.00000022  00000+0  89745-5 0  9990",
        "line2": "2 40069  98.4404  93.6077 0004603 238.2826 121.7906 14.20699077398085",
        "freq": 137.1,
        "type": "LRPT",
        "catalog_number": "40069"
    }
}